{
  "type": "FeatureCollection",
  "features": [
    {
      "type": "Feature",
      "properties": {
        "norad_id": 66581,
        "name": "STARLINK-35744",
        "group": "last-30-days",
        "lat": 37.15721612284267,
        "lon": -158.14272329955594,
        "alt_km": 406.4052885938363,
        "timestamp": "2025-12-20T09:36:00.350919+00:00",
        "meta_object_name": "STARLINK-35744",
        "meta_object_id": "2025-268AA",
        "meta_epoch": "2025-12-19T14:32:57.535872",
        "meta_mean_motion": 15.50868619,
        "meta_eccentricity": 0.0002007,
        "meta_inclination": 42.9976,
        "meta_ra_of_asc_node": 80.9302,
        "meta_arg_of_pericenter": 149.3188,
        "meta_mean_anomaly": 210.779,
        "meta_ephemeris_type": 0,
        "meta_classification_type": "U",
        "meta_norad_cat_id": 66581,
        "meta_element_set_no": 999,
        "meta_rev_at_epoch": 569,
        "meta_bstar": 0.002953,
        "meta_mean_motion_dot": 0.00178751,
        "meta_mean_motion_ddot": 0,
        "tle_line1": "1 66581U 25268AA  25353.60622148  .00178751  00000+0  29530-2 0  9995",
        "tle_line2": "2 66581  42.9976  80.9302 0002007 149.3188 210.7790 15.50868619  5695"
      },
      "geometry": {
        "type": "Point",
        "coordinates": [
          -158.14272329955594,
          37.15721612284267
        ]
      }
    },
    {
      "type": "Feature",
      "properties": {
        "norad_id": 66582,
        "name": "STARLINK-35746",
        "group": "last-30-days",
        "lat": 36.4058842858572,
        "lon": -156.03894226732504,
        "alt_km": 405.91639049146943,
        "timestamp": "2025-12-20T09:36:00.350945+00:00",
        "meta_object_name": "STARLINK-35746",
        "meta_object_id": "2025-268AB",
        "meta_epoch": "2025-12-19T14:32:27.681216",
        "meta_mean_motion": 15.50863129,
        "meta_eccentricity": 0.0003514,
        "meta_inclination": 42.9991,
        "meta_ra_of_asc_node": 80.9247,
        "meta_arg_of_pericenter": 153.85,
        "meta_mean_anomaly": 206.2539,
        "meta_ephemeris_type": 0,
        "meta_classification_type": "U",
        "meta_norad_cat_id": 66582,
        "meta_element_set_no": 999,
        "meta_rev_at_epoch": 569,
        "meta_bstar": 0.0024947,
        "meta_mean_motion_dot": 0.00150392,
        "meta_mean_motion_ddot": 0,
        "tle_line1": "1 66582U 25268AB  25353.60587594  .00150392  00000+0  24947-2 0  9999",
        "tle_line2": "2 66582  42.9991  80.9247 0003514 153.8500 206.2539 15.50863129  5695"
      },
      "geometry": {
        "type": "Point",
        "coordinates": [
          -156.03894226732504,
          36.4058842858572
        ]
      }
    },
    {
      "type": "Feature",
      "properties": {
        "norad_id": 66583,
        "name": "STARLINK-35941",
        "group": "last-30-days",
        "lat": 34.32850991900986,
        "lon": -150.86110809589263,
        "alt_km": 404.02652833133834,
        "timestamp": "2025-12-20T09:36:00.350958+00:00",
        "meta_object_name": "STARLINK-35941",
        "meta_object_id": "2025-268AC",
        "meta_epoch": "2025-12-19T16:04:41.529504",
        "meta_mean_motion": 15.51345807,
        "meta_eccentricity": 0.00013763,
        "meta_inclination": 42.9996,
        "meta_ra_of_asc_node": 80.5444,
        "meta_arg_of_pericenter": 334.8074,
        "meta_mean_anomaly": 25.2719,
        "meta_ephemeris_type": 0,
        "meta_classification_type": "U",
        "meta_norad_cat_id": 66583,
        "meta_element_set_no": 999,
        "meta_rev_at_epoch": 570,
        "meta_bstar": 0.01517546,
        "meta_mean_motion_dot": 0.01004457,
        "meta_mean_motion_ddot": 0,
        "tle_line1": "1 66583U 25268AC  25353.66992511  .01004457  00000+0  15175-1 0  9998",
        "tle_line2": "2 66583  42.9996  80.5444 0001376 334.8074  25.2719 15.51345807  5707"
      },
      "geometry": {
        "type": "Point",
        "coordinates": [
          -150.86110809589263,
          34.32850991900986
        ]
      }
    },
    {
      "type": "Feature",
      "properties": {
        "norad_id": 66584,
        "name": "STARLINK-35939",
        "group": "last-30-days",
        "lat": 34.94456012385695,
        "lon": -152.3147774564579,
        "alt_km": 408.02341612888085,
        "timestamp": "2025-12-20T09:36:00.350968+00:00",
        "meta_object_name": "STARLINK-35939",
        "meta_object_id": "2025-268AD",
        "meta_epoch": "2025-12-19T14:31:27.869088",
        "meta_mean_motion": 15.50751867,
        "meta_eccentricity": 0.0002615,
        "meta_inclination": 42.9992,
        "meta_ra_of_asc_node": 80.9182,
        "meta_arg_of_pericenter": 187.8218,
        "meta_mean_anomaly": 172.2602,
        "meta_ephemeris_type": 0,
        "meta_classification_type": "U",
        "meta_norad_cat_id": 66584,
        "meta_element_set_no": 999,
        "meta_rev_at_epoch": 569,
        "meta_bstar": 0.0012867,
        "meta_mean_motion_dot": 0.00076356,
        "meta_mean_motion_ddot": 0,
        "tle_line1": "1 66584U 25268AD  25353.60518367  .00076356  00000+0  12867-2 0  9998",
        "tle_line2": "2 66584  42.9992  80.9182 0002615 187.8218 172.2602 15.50751867  5698"
      },
      "geometry": {
        "type": "Point",
        "coordinates": [
          -152.3147774564579,
          34.94456012385695
        ]
      }
    },
    {
      "type": "Feature",
      "properties": {
        "norad_id": 66585,
        "name": "STARLINK-35963",
        "group": "last-30-days",
        "lat": 32.96772987065741,
        "lon": -147.84688922166592,
        "alt_km": 405.19586016275844,
        "timestamp": "2025-12-20T09:36:00.350982+00:00",
        "meta_object_name": "STARLINK-35963",
        "meta_object_id": "2025-268AE",
        "meta_epoch": "2025-12-20T02:52:34.975200",
        "meta_mean_motion": 15.51655484,
        "meta_eccentricity": 0.0003132,
        "meta_inclination": 43.0024,
        "meta_ra_of_asc_node": 77.9007,
        "meta_arg_of_pericenter": 70.9794,
        "meta_mean_anomaly": 289.1406,
        "meta_ephemeris_type": 0,
        "meta_classification_type": "U",
        "meta_norad_cat_id": 66585,
        "meta_element_set_no": 999,
        "meta_rev_at_epoch": 577,
        "meta_bstar": 0.0020907,
        "meta_mean_motion_dot": 0.00129249,
        "meta_mean_motion_ddot": 0,
        "tle_line1": "1 66585U 25268AE  25354.11984925  .00129249  00000+0  20907-2 0  9997",
        "tle_line2": "2 66585  43.0024  77.9007 0003132  70.9794 289.1406 15.51655484  5773"
      },
      "geometry": {
        "type": "Point",
        "coordinates": [
          -147.84688922166592,
          32.96772987065741
        ]
      }
    },
    {
      "type": "Feature",
      "properties": {
        "norad_id": 66586,
        "name": "TJS-21",
        "group": "last-30-days",
        "lat": 62.79053530993852,
        "lon": -119.82337925287321,
        "alt_km": 37899.93874705275,
        "timestamp": "2025-12-20T09:36:00.350996+00:00",
        "meta_object_name": "TJS-21",
        "meta_object_id": "2025-269A",
        "meta_epoch": "2025-12-18T16:58:10.473888",
        "meta_mean_motion": 2.00580748,
        "meta_eccentricity": 0.6806869,
        "meta_inclination": 63.2733,
        "meta_ra_of_asc_node": 161.7218,
        "meta_arg_of_pericenter": 269.7428,
        "meta_mean_anomaly": 18.6663,
        "meta_ephemeris_type": 0,
        "meta_classification_type": "U",
        "meta_norad_cat_id": 66586,
        "meta_element_set_no": 999,
        "meta_rev_at_epoch": 55,
        "meta_bstar": -0.059507049,
        "meta_mean_motion_dot": 1.084e-05,
        "meta_mean_motion_ddot": 0,
        "tle_line1": "1 66586U 25269A   25352.70706567  .00001084  00000+0 -59507-1 0  9990",
        "tle_line2": "2 66586  63.2733 161.7218 6806869 269.7428  18.6663  2.00580748   558"
      },
      "geometry": {
        "type": "Point",
        "coordinates": [
          -119.82337925287321,
          62.79053530993852
        ]
      }
    },
    {
      "type": "Feature",
      "properties": {
        "norad_id": 66587,
        "name": "CZ-3B R/B",
        "group": "last-30-days",
        "lat": 42.81419311326732,
        "lon": -144.2009494310299,
        "alt_km": 37328.38467035206,
        "timestamp": "2025-12-20T09:36:00.351010+00:00",
        "meta_object_name": "CZ-3B R/B",
        "meta_object_id": "2025-269B",
        "meta_epoch": "2025-12-18T04:21:45.908640",
        "meta_mean_motion": 2.0405465,
        "meta_eccentricity": 0.75166459,
        "meta_inclination": 51.3412,
        "meta_ra_of_asc_node": 168.3764,
        "meta_arg_of_pericenter": 229.6756,
        "meta_mean_anomaly": 36.1575,
        "meta_ephemeris_type": 0,
        "meta_classification_type": "U",
        "meta_norad_cat_id": 66587,
        "meta_element_set_no": 999,
        "meta_rev_at_epoch": 56,
        "meta_bstar": 0.00058948144,
        "meta_mean_motion_dot": 0.0008861,
        "meta_mean_motion_ddot": -1.447425e-06,
        "tle_line1": "1 66587U 25269B   25352.18178135  .00088610 -14474-5  58948-3 0  9993",
        "tle_line2": "2 66587  51.3412 168.3764 7516645 229.6756  36.1575  2.04054650   560"
      },
      "geometry": {
        "type": "Point",
        "coordinates": [
          -144.2009494310299,
          42.81419311326732
        ]
      }
    }
  ]
}